<?xml version="1.0" encoding="utf-8" ?>
<kml xmlns="http://www.opengis.net/kml/2.2">
<Document id="root_doc">
<Folder><name>Kampinoski_Park_Narodowy</name>
  <Placemark id="Kampinoski_Park_Narodowy.1">
	<name>Kampinoski Park Narodowy</name>
      <MultiGeometry><Polygon><outerBoundaryIs><LinearRing><coordinates>20.5524599,52.2714231 20.5527174,52.2713846 20.5525345,52.2728685 20.5522847,52.2728569 20.5524599,52.2714231</coordinates></LinearRing></outerBoundaryIs></Polygon><Polygon><outerBoundaryIs><LinearRing><coordinates>20.5532406,52.2713071 20.5535417,52.2712675 20.5538173,52.2714923 20.5530263,52.2783214 20.552423,52.2782981 20.5532406,52.2713071</coordinates></LinearRing></outerBoundaryIs></Polygon><Polygon><outerBoundaryIs><LinearRing><coordinates>20.5535632,52.2783411 20.5538625,52.274813 20.5542489,52.2717599 20.5544764,52.2719372 20.5538329,52.2783494 20.5535632,52.2783411</coordinates></LinearRing></outerBoundaryIs></Polygon><Polygon><outerBoundaryIs><LinearRing><coordinates>20.6715871,52.3852619 20.6722317,52.3853197 20.6721113,52.3866581 20.671976,52.3861569 20.6715871,52.3852619</coordinates></LinearRing></outerBoundaryIs></Polygon><Polygon><outerBoundaryIs><LinearRing><coordinates>20.6679446,52.3894827 20.6680425,52.3884181 20.6681205,52.3894774 20.6679446,52.3894827</coordinates></LinearRing></outerBoundaryIs></Polygon><Polygon><outerBoundaryIs><LinearRing><coordinates>20.6715984,52.3843894 20.6718077,52.3845457 20.6679929,52.3842713 20.6679542,52.3841478 20.6715984,52.3843894</coordinates></LinearRing></outerBoundaryIs></Polygon><Polygon><outerBoundaryIs><LinearRing><coordinates>20.6711422,52.385018 20.670607,52.3848438 20.6706389,52.3844998 20.6711929,52.3845481 20.6711422,52.385018</coordinates></LinearRing></outerBoundaryIs></Polygon><Polygon><outerBoundaryIs><LinearRing><coordinates>20.6697187,52.3844426 20.6697131,52.3846014 20.6689522,52.3843951 20.6697187,52.3844426</coordinates></LinearRing></outerBoundaryIs></Polygon><Polygon><outerBoundaryIs><LinearRing><coordinates>20.6699335,52.3844559 20.6704106,52.3844855 20.6703795,52.3847821 20.6699192,52.3846573 20.6699335,52.3844559</coordinates></LinearRing></outerBoundaryIs></Polygon><Polygon><outerBoundaryIs><LinearRing><coordinates>20.6722484,52.3852392 20.6722806,52.3848884 20.6728194,52.3852924 20.6722484,52.3852392</coordinates></LinearRing></outerBoundaryIs></Polygon><Polygon><outerBoundaryIs><LinearRing><coordinates>20.6705885,52.384917 20.6711184,52.3850944 20.6709186,52.3870082 20.6703933,52.3870269 20.6705885,52.384917</coordinates></LinearRing></outerBoundaryIs></Polygon><Polygon><outerBoundaryIs><LinearRing><coordinates>20.6711137,52.3870114 20.6712834,52.3851533 20.6715333,52.3852426 20.6719329,52.3861624 20.6720358,52.3871091 20.6711137,52.3870114</coordinates></LinearRing></outerBoundaryIs></Polygon><Polygon><outerBoundaryIs><LinearRing><coordinates>20.672068,52.3871399 20.6718607,52.3894414 20.6708609,52.3894505 20.6710893,52.3870361 20.672068,52.3871399</coordinates></LinearRing></outerBoundaryIs></Polygon><Polygon><outerBoundaryIs><LinearRing><coordinates>20.6709269,52.3870349 20.6706709,52.3894523 20.6701664,52.3894568 20.6703922,52.3870539 20.6709269,52.3870349</coordinates></LinearRing></outerBoundaryIs></Polygon><Polygon><outerBoundaryIs><LinearRing><coordinates>20.6701727,52.387058 20.6699335,52.389459 20.66943,52.3894635 20.6696778,52.3870672 20.6701727,52.387058</coordinates></LinearRing></outerBoundaryIs></Polygon><Polygon><outerBoundaryIs><LinearRing><coordinates>20.6691096,52.3894664 20.6693314,52.3870736 20.6694994,52.3870705 20.6692799,52.3894649 20.6691096,52.3894664</coordinates></LinearRing></outerBoundaryIs></Polygon><Polygon><outerBoundaryIs><LinearRing><coordinates>20.6691577,52.3870769 20.6689226,52.3894681 20.668332,52.3894735 20.6684528,52.3871146 20.6691577,52.3870769</coordinates></LinearRing></outerBoundaryIs></Polygon><Polygon><outerBoundaryIs><LinearRing><coordinates>20.6680869,52.3884157 20.6682002,52.3871282 20.6683198,52.3871218 20.6681898,52.3886902 20.6680869,52.3884157</coordinates></LinearRing></outerBoundaryIs></Polygon><Polygon><outerBoundaryIs><LinearRing><coordinates>20.6685638,52.3843909 20.6683128,52.387095 20.6681987,52.3871012 20.6684493,52.3843816 20.6685638,52.3843909</coordinates></LinearRing></outerBoundaryIs></Polygon><Polygon><outerBoundaryIs><LinearRing><coordinates>20.6687181,52.3844033 20.6697225,52.3846712 20.6695043,52.3870435 20.669326,52.3870467 20.6694036,52.3862313 20.6692255,52.386229 20.6691513,52.38705 20.6684637,52.3870869 20.6687181,52.3844033</coordinates></LinearRing></outerBoundaryIs></Polygon><Polygon><outerBoundaryIs><LinearRing><coordinates>20.669915,52.3847237 20.6703852,52.3848561 20.6701623,52.3870313 20.6696718,52.3870403 20.669915,52.3847237</coordinates></LinearRing></outerBoundaryIs></Polygon><Polygon><outerBoundaryIs><LinearRing><coordinates>20.6616942,52.2663712 20.660483,52.2664772 20.6607011,52.2660009 20.6616942,52.2663712</coordinates></LinearRing></outerBoundaryIs></Polygon><Polygon><outerBoundaryIs><LinearRing><coordinates>20.658796,52.2627909 20.6630253,52.2629577 20.6632018,52.2632958 20.659731,52.2633081 20.6527954,52.2630001 20.6527548,52.2625288 20.6568691,52.2621993 20.6585221,52.2617099 20.658796,52.2627909</coordinates></LinearRing></outerBoundaryIs></Polygon><Polygon><outerBoundaryIs><LinearRing><coordinates>20.6651018,52.2649832 20.6638373,52.2650677 20.6638297,52.2660317 20.6618249,52.2663683 20.6590087,52.2653081 20.6528537,52.2632273 20.6598514,52.263497 20.6649087,52.2634921 20.6658155,52.2647118 20.6651018,52.2649832</coordinates></LinearRing></outerBoundaryIs></Polygon><Polygon><outerBoundaryIs><LinearRing><coordinates>20.6604069,52.2664861 20.6585553,52.2671632 20.6555592,52.2668925 20.6545541,52.2669621 20.6538442,52.2671908 20.6529823,52.2671591 20.6520639,52.2663261 20.6519352,52.2636234 20.6526823,52.2634942 20.6527853,52.2632554 20.6574876,52.2649446 20.6589865,52.265343 20.6606359,52.2659774 20.6604069,52.2664861</coordinates></LinearRing></outerBoundaryIs></Polygon><Polygon><outerBoundaryIs><LinearRing><coordinates>20.6501435,52.2673794 20.6484289,52.2674025 20.6485983,52.2644172 20.6494304,52.2644739 20.6496486,52.2636332 20.6517706,52.2636518 20.6519458,52.2663625 20.6528282,52.2671623 20.6502072,52.2671345 20.6501435,52.2673794</coordinates></LinearRing></outerBoundaryIs></Polygon><Polygon><outerBoundaryIs><LinearRing><coordinates>20.6484695,52.2645091 20.6482367,52.2674555 20.647898,52.2674363 20.6482939,52.2646345 20.6484695,52.2645091</coordinates></LinearRing></outerBoundaryIs></Polygon><Polygon><outerBoundaryIs><LinearRing><coordinates>20.6353196,52.2643496 20.6355999,52.2623378 20.6382139,52.2624918 20.6382511,52.2638719 20.6388839,52.2639296 20.6387567,52.2645489 20.6353196,52.2643496</coordinates></LinearRing></outerBoundaryIs></Polygon><Polygon><outerBoundaryIs><LinearRing><coordinates>20.5572049,52.2595354 20.557379,52.2604634 20.555714,52.260584 20.5555765,52.259864 20.5572049,52.2595354</coordinates></LinearRing></outerBoundaryIs></Polygon><Polygon><outerBoundaryIs><LinearRing><coordinates>20.7132051,52.2758145 20.7131614,52.275723 20.7184316,52.274846 20.7132051,52.2758145</coordinates></LinearRing></outerBoundaryIs></Polygon><Polygon><outerBoundaryIs><LinearRing><coordinates>20.7223981,52.2716609 20.722669,52.2722208 20.7238445,52.2720017 20.7233339,52.2709472 20.7239612,52.2703294 20.7267474,52.2760193 20.722541,52.2775846 20.7201147,52.2726177 20.7215793,52.2722646 20.7223981,52.2716609</coordinates></LinearRing></outerBoundaryIs></Polygon><Polygon><outerBoundaryIs><LinearRing><coordinates>20.7223784,52.2716193 20.7215623,52.2722212 20.720099,52.2725831 20.7183212,52.2689372 20.7201482,52.2686479 20.7211691,52.2691286 20.7223784,52.2716193</coordinates></LinearRing></outerBoundaryIs></Polygon><Polygon><outerBoundaryIs><LinearRing><coordinates>20.7291003,52.2710373 20.7251221,52.2725526 20.7244291,52.271145 20.7261236,52.2705278 20.7291003,52.2710373</coordinates></LinearRing></outerBoundaryIs></Polygon><Polygon><outerBoundaryIs><LinearRing><coordinates>20.7262122,52.2747994 20.7251676,52.2726451 20.7292816,52.2710783 20.7299973,52.2713626 20.730013,52.2721239 20.7312911,52.2728939 20.7262122,52.2747994</coordinates></LinearRing></outerBoundaryIs></Polygon><Polygon><outerBoundaryIs><LinearRing><coordinates>20.6465084,52.3882958 20.6481932,52.3885799 20.6485108,52.3891252 20.6467824,52.3896882 20.6465084,52.3882958</coordinates></LinearRing></outerBoundaryIs></Polygon><Polygon><outerBoundaryIs><LinearRing><coordinates>20.6349614,52.4116846 20.6320058,52.4113491 20.6320076,52.4113218 20.6349614,52.4116846</coordinates></LinearRing></outerBoundaryIs></Polygon><Polygon><outerBoundaryIs><LinearRing><coordinates>20.585137,52.2589022 20.5851482,52.2589527 20.5831386,52.258874 20.585137,52.2589022</coordinates></LinearRing></outerBoundaryIs></Polygon><Polygon><outerBoundaryIs><LinearRing><coordinates>20.8277455,52.3481666 20.827526,52.3482146 20.8271879,52.3476396 20.827409,52.3475909 20.8277455,52.3481666</coordinates></LinearRing></outerBoundaryIs></Polygon><Polygon><outerBoundaryIs><LinearRing><coordinates>20.6650572,52.3893963 20.6653568,52.3895604 20.6650693,52.3895691 20.6650572,52.3893963</coordinates></LinearRing></outerBoundaryIs></Polygon><Polygon><outerBoundaryIs><LinearRing><coordinates>20.6701911,52.3839023 20.6678297,52.3837493 20.6678096,52.3836852 20.6698844,52.3838024 20.6701911,52.3839023</coordinates></LinearRing></outerBoundaryIs></Polygon><Polygon><outerBoundaryIs><LinearRing><coordinates>20.6718706,52.3845926 20.6722711,52.3848918 20.6722392,52.3852388 20.6713086,52.385078 20.6713419,52.3845579 20.6718706,52.3845926</coordinates></LinearRing></outerBoundaryIs></Polygon><Polygon><outerBoundaryIs><LinearRing><coordinates>20.8006244,52.2835313 20.8003771,52.2838758 20.8001482,52.2830921 20.8004836,52.2830492 20.8006244,52.2835313</coordinates></LinearRing></outerBoundaryIs></Polygon><Polygon><outerBoundaryIs><LinearRing><coordinates>20.4435082,52.3613336 20.4421554,52.3635788 20.4417434,52.3634738 20.4430441,52.3613033 20.4435082,52.3613336</coordinates></LinearRing></outerBoundaryIs></Polygon><Polygon><outerBoundaryIs><LinearRing><coordinates>20.3499088,52.373079 20.3500846,52.3772584 20.3484497,52.3773137 20.3482089,52.3730703 20.3499088,52.373079</coordinates></LinearRing></outerBoundaryIs></Polygon><Polygon><outerBoundaryIs><LinearRing><coordinates>20.6416741,52.3597128 20.6410241,52.3604737 20.6470474,52.3522639 20.6478786,52.3525008 20.6422284,52.3601477 20.6418593,52.3600539 20.6420609,52.3597824 20.6416741,52.3597128</coordinates></LinearRing></outerBoundaryIs></Polygon><Polygon><outerBoundaryIs><LinearRing><coordinates>20.6292632,52.3606753 20.6299103,52.3608897 20.6287478,52.3632075 20.6284174,52.3623328 20.6292632,52.3606753</coordinates></LinearRing></outerBoundaryIs></Polygon><Polygon><outerBoundaryIs><LinearRing><coordinates>20.6310635,52.3612503 20.6318573,52.361633 20.6296964,52.3657765 20.6295808,52.3657472 20.6292296,52.3647136 20.6310635,52.3612503</coordinates></LinearRing></outerBoundaryIs></Polygon><Polygon><outerBoundaryIs><LinearRing><coordinates>20.3105227,52.3468295 20.3091107,52.3473319 20.3086546,52.3467509 20.3100109,52.3462236 20.3105227,52.3468295</coordinates></LinearRing></outerBoundaryIs></Polygon><Polygon><outerBoundaryIs><LinearRing><coordinates>20.3183157,52.2933902 20.3183828,52.2937506 20.3175707,52.2936264 20.3174242,52.293389 20.3183157,52.2933902</coordinates></LinearRing></outerBoundaryIs></Polygon><Polygon><outerBoundaryIs><LinearRing><coordinates>20.3265116,52.2989681 20.3256955,52.2991713 20.325627,52.2990644 20.3262182,52.2988841 20.3263716,52.29874 20.3265116,52.2989681</coordinates></LinearRing></outerBoundaryIs></Polygon><Polygon><outerBoundaryIs><LinearRing><coordinates>20.3345796,52.2969581 20.3341444,52.2970668 20.3339917,52.2967913 20.3345796,52.2969581</coordinates></LinearRing></outerBoundaryIs></Polygon><Polygon><outerBoundaryIs><LinearRing><coordinates>20.7226989,52.2697013 20.7239742,52.2702577 20.7232711,52.2709412 20.7226989,52.2697013</coordinates></LinearRing></outerBoundaryIs></Polygon><Polygon><outerBoundaryIs><LinearRing><coordinates>20.3546204,52.3723561 20.3549243,52.3723599 20.3549666,52.3729166 20.3538829,52.3728765 20.3537891,52.3716405 20.3543299,52.371536 20.3548718,52.3716682 20.3548765,52.3719091 20.3546449,52.3718948 20.3546204,52.3723561</coordinates></LinearRing></outerBoundaryIs></Polygon><Polygon><outerBoundaryIs><LinearRing><coordinates>20.7796109,52.2759235 20.7807891,52.2757096 20.780814,52.2763328 20.7796159,52.2763098 20.7796109,52.2759235</coordinates></LinearRing></outerBoundaryIs></Polygon><Polygon><outerBoundaryIs><LinearRing><coordinates>20.7298193,52.2748712 20.7315566,52.2783395 20.7267242,52.2802789 20.724922,52.2767695 20.7298193,52.2748712</coordinates></LinearRing></outerBoundaryIs></Polygon><Polygon><outerBoundaryIs><LinearRing><coordinates>20.7321107,52.278118 20.7303684,52.2746512 20.7313669,52.2742755 20.7330817,52.2777301 20.7321107,52.278118</coordinates></LinearRing></outerBoundaryIs></Polygon><Polygon><outerBoundaryIs><LinearRing><coordinates>20.7321881,52.2734401 20.7326611,52.2737387 20.7267841,52.2760044 20.7265769,52.2755508 20.7321881,52.2734401</coordinates></LinearRing></outerBoundaryIs></Polygon><Polygon><outerBoundaryIs><LinearRing><coordinates>20.7314942,52.273014 20.7316864,52.2731346 20.7263672,52.2751262 20.7262924,52.2749628 20.7314942,52.273014</coordinates></LinearRing></outerBoundaryIs></Polygon><Polygon><outerBoundaryIs><LinearRing><coordinates>20.7318836,52.2732522 20.7320433,52.2733469 20.7265095,52.275424 20.7264521,52.2752973 20.7318836,52.2732522</coordinates></LinearRing></outerBoundaryIs></Polygon><Polygon><outerBoundaryIs><LinearRing><coordinates>20.725863,52.2690549 20.7261126,52.2690503 20.7267978,52.2705846 20.7264571,52.2705426 20.725863,52.2690549</coordinates></LinearRing></outerBoundaryIs></Polygon><Polygon><outerBoundaryIs><LinearRing><coordinates>20.7193158,52.2728093 20.7199598,52.2726535 20.722391,52.27764 20.721757,52.2778584 20.7193158,52.2728093</coordinates></LinearRing></outerBoundaryIs></Polygon><Polygon><outerBoundaryIs><LinearRing><coordinates>20.7243754,52.2710421 20.7240085,52.2702864 20.7258418,52.2705098 20.7243754,52.2710421</coordinates></LinearRing></outerBoundaryIs></Polygon><Polygon><outerBoundaryIs><LinearRing><coordinates>20.7181639,52.2689671 20.7199448,52.2726191 20.7192984,52.2727742 20.7174987,52.2690931 20.7181639,52.2689671</coordinates></LinearRing></outerBoundaryIs></Polygon><Polygon><outerBoundaryIs><LinearRing><coordinates>20.7171842,52.2691542 20.7189889,52.272849 20.7185046,52.2731514 20.7165926,52.2692703 20.7171842,52.2691542</coordinates></LinearRing></outerBoundaryIs></Polygon><Polygon><outerBoundaryIs><LinearRing><coordinates>20.7183998,52.2732522 20.7183174,52.2733271 20.7173539,52.2714117 20.7169995,52.2714774 20.7159187,52.2694032 20.7164553,52.2692978 20.7183998,52.2732522</coordinates></LinearRing></outerBoundaryIs></Polygon><Polygon><outerBoundaryIs><LinearRing><coordinates>20.7123044,52.2708283 20.7162182,52.2700982 20.7167149,52.2710834 20.7127412,52.2718257 20.7123044,52.2708283</coordinates></LinearRing></outerBoundaryIs></Polygon><Polygon><outerBoundaryIs><LinearRing><coordinates>20.7229975,52.2687952 20.7235042,52.2688533 20.7239666,52.2702169 20.723337,52.269921 20.7229975,52.2687952</coordinates></LinearRing></outerBoundaryIs></Polygon><Polygon><outerBoundaryIs><LinearRing><coordinates>20.7166861,52.2653993 20.7194212,52.268033 20.7201037,52.2685802 20.7193665,52.2686718 20.716084,52.2655189 20.7166861,52.2653993</coordinates></LinearRing></outerBoundaryIs></Polygon><Polygon><outerBoundaryIs><LinearRing><coordinates>20.7151227,52.2656806 20.7182058,52.2689168 20.7179539,52.2689608 20.7149685,52.2657102 20.7151227,52.2656806</coordinates></LinearRing></outerBoundaryIs></Polygon><Polygon><outerBoundaryIs><LinearRing><coordinates>20.7145802,52.2657886 20.7148017,52.2657455 20.7176834,52.2690182 20.7173789,52.2690809 20.7145802,52.2657886</coordinates></LinearRing></outerBoundaryIs></Polygon><Polygon><outerBoundaryIs><LinearRing><coordinates>20.7136781,52.2659685 20.7143415,52.2658337 20.7170385,52.2691462 20.7161399,52.2693218 20.7136781,52.2659685</coordinates></LinearRing></outerBoundaryIs></Polygon><Polygon><outerBoundaryIs><LinearRing><coordinates>20.7125737,52.2661935 20.713064,52.2660969 20.7153121,52.269478 20.7144635,52.2696308 20.7125737,52.2661935</coordinates></LinearRing></outerBoundaryIs></Polygon><Polygon><outerBoundaryIs><LinearRing><coordinates>20.0480901,51.4815207 20.0468917,51.481476 20.0473586,51.4806029 20.0488291,51.4805029 20.0488029,51.4812257 20.0481849,51.481237 20.0480901,51.4815207</coordinates></LinearRing></outerBoundaryIs></Polygon><Polygon><outerBoundaryIs><LinearRing><coordinates>20.2602781,52.3605741 20.2605433,52.362327 20.2613593,52.3678793 20.2611836,52.3678104 20.2600858,52.3606304 20.2602781,52.3605741</coordinates></LinearRing></outerBoundaryIs></Polygon><Polygon><outerBoundaryIs><LinearRing><coordinates>20.2596982,52.3607598 20.2603772,52.3648564 20.2608047,52.367605 20.2605869,52.3675156 20.2594905,52.360835 20.2596982,52.3607598</coordinates></LinearRing></outerBoundaryIs></Polygon><Polygon><outerBoundaryIs><LinearRing><coordinates>20.259151,52.3609621 20.260213,52.367318 20.2599939,52.3672383 20.2595192,52.3644457 20.2589598,52.3610133 20.259151,52.3609621</coordinates></LinearRing></outerBoundaryIs></Polygon><Polygon><outerBoundaryIs><LinearRing><coordinates>20.2602901,52.360327 20.2601171,52.3603864 20.260092,52.3601623 20.2602694,52.3601502 20.2602901,52.360327</coordinates></LinearRing></outerBoundaryIs></Polygon><Polygon><outerBoundaryIs><LinearRing><coordinates>20.2597127,52.3605245 20.2595278,52.3605949 20.2594529,52.360218 20.2596484,52.3602051 20.2597127,52.3605245</coordinates></LinearRing></outerBoundaryIs></Polygon><Polygon><outerBoundaryIs><LinearRing><coordinates>20.2591869,52.3607082 20.2589652,52.3607806 20.2588754,52.3602666 20.2590901,52.3602479 20.2591869,52.3607082</coordinates></LinearRing></outerBoundaryIs></Polygon><Polygon><outerBoundaryIs><LinearRing><coordinates>20.2579128,52.3621678 20.2574376,52.3624774 20.2573543,52.36207 20.2579128,52.3621678</coordinates></LinearRing></outerBoundaryIs></Polygon><Polygon><outerBoundaryIs><LinearRing><coordinates>20.2579614,52.3622175 20.2583931,52.3645693 20.2587815,52.3667754 20.2582075,52.3666628 20.2575023,52.3625175 20.2579614,52.3622175</coordinates></LinearRing></outerBoundaryIs></Polygon><Polygon><outerBoundaryIs><LinearRing><coordinates>20.2574091,52.3625988 20.2581214,52.3666329 20.2575856,52.3665692 20.256939,52.3627293 20.2574091,52.3625988</coordinates></LinearRing></outerBoundaryIs></Polygon><Polygon><outerBoundaryIs><LinearRing><coordinates>20.258859,52.3668832 20.2590562,52.3680177 20.2584944,52.368036 20.2582772,52.3667657 20.258859,52.3668832</coordinates></LinearRing></outerBoundaryIs></Polygon><Polygon><outerBoundaryIs><LinearRing><coordinates>20.2576719,52.3666431 20.2581839,52.3667115 20.258423,52.3680449 20.2579009,52.3680539 20.2576719,52.3666431</coordinates></LinearRing></outerBoundaryIs></Polygon><Polygon><outerBoundaryIs><LinearRing><coordinates>20.2570148,52.3680735 20.2568246,52.3680909 20.2567385,52.3666623 20.2569125,52.3666593 20.2570148,52.3680735</coordinates></LinearRing></outerBoundaryIs></Polygon><Polygon><outerBoundaryIs><LinearRing><coordinates>20.2800617,52.3680214 20.2802748,52.3680534 20.2791772,52.3682277 20.2775939,52.3681487 20.2779377,52.3672422 20.280954,52.367676 20.2800617,52.3680214</coordinates></LinearRing></outerBoundaryIs></Polygon><Polygon><outerBoundaryIs><LinearRing><coordinates>20.2828716,52.3727549 20.2821724,52.3727811 20.2821169,52.3717832 20.2828099,52.3716893 20.2828716,52.3727549</coordinates></LinearRing></outerBoundaryIs></Polygon><Polygon><outerBoundaryIs><LinearRing><coordinates>20.2768323,52.3749558 20.275416,52.3750322 20.2753423,52.3733495 20.2767704,52.3731422 20.2768323,52.3749558</coordinates></LinearRing></outerBoundaryIs></Polygon><Polygon><outerBoundaryIs><LinearRing><coordinates>20.2722684,52.3746925 20.2716201,52.3747165 20.2715754,52.3738172 20.272224,52.3737401 20.2722684,52.3746925</coordinates></LinearRing></outerBoundaryIs></Polygon><Polygon><outerBoundaryIs><LinearRing><coordinates>20.2710137,52.3751423 20.2706007,52.3751458 20.2705512,52.3739369 20.2709554,52.3738896 20.2710137,52.3751423</coordinates></LinearRing></outerBoundaryIs></Polygon><Polygon><outerBoundaryIs><LinearRing><coordinates>20.3854246,52.3720098 20.3848895,52.3720103 20.3848823,52.370795 20.3871962,52.3693369 20.3872579,52.3708196 20.3854195,52.3707334 20.3854246,52.3720098</coordinates></LinearRing></outerBoundaryIs></Polygon><Polygon><outerBoundaryIs><LinearRing><coordinates>20.3957464,52.3702584 20.3957995,52.3712655 20.3949808,52.3714826 20.3948618,52.370223 20.3957464,52.3702584</coordinates></LinearRing></outerBoundaryIs></Polygon><Polygon><outerBoundaryIs><LinearRing><coordinates>20.3958343,52.3726741 20.3951212,52.37286 20.3950023,52.3716533 20.3957747,52.3714485 20.3958343,52.3726741</coordinates></LinearRing></outerBoundaryIs></Polygon><Polygon><outerBoundaryIs><LinearRing><coordinates>20.4531521,52.3759307 20.452904,52.3763461 20.4519434,52.3764205 20.4523685,52.3757062 20.4531521,52.3759307</coordinates></LinearRing></outerBoundaryIs></Polygon><Polygon><outerBoundaryIs><LinearRing><coordinates>20.4315261,52.3619044 20.4311179,52.3620347 20.4306779,52.3621676 20.4311735,52.3613159 20.4319501,52.3611752 20.4315261,52.3619044</coordinates></LinearRing></outerBoundaryIs></Polygon><Polygon><outerBoundaryIs><LinearRing><coordinates>20.434956,52.3703705 20.4323259,52.3737682 20.4330194,52.3742329 20.4327516,52.3745603 20.4316767,52.3746199 20.4322577,52.3738574 20.4314923,52.3733405 20.4339231,52.3701773 20.434956,52.3703705</coordinates></LinearRing></outerBoundaryIs></Polygon><Polygon><outerBoundaryIs><LinearRing><coordinates>20.4250658,52.3649821 20.4235487,52.3649238 20.4233199,52.3642324 20.4247587,52.364054 20.4250658,52.3649821</coordinates></LinearRing></outerBoundaryIs></Polygon><Polygon><outerBoundaryIs><LinearRing><coordinates>20.4256485,52.369043 20.4253447,52.3690692 20.4245821,52.3658393 20.4249398,52.3658368 20.4256485,52.369043</coordinates></LinearRing></outerBoundaryIs></Polygon><Polygon><outerBoundaryIs><LinearRing><coordinates>20.4265964,52.3726177 20.4262306,52.3726644 20.4254087,52.3693207 20.4257775,52.3693179 20.4265964,52.3726177</coordinates></LinearRing></outerBoundaryIs></Polygon><Polygon><outerBoundaryIs><LinearRing><coordinates>20.4233675,52.3853486 20.4257282,52.3866104 20.4238874,52.3885257 20.4224152,52.3880297 20.4204523,52.3869442 20.4225083,52.3850333 20.4232841,52.3853582 20.4231857,52.3855037 20.4233675,52.3853486</coordinates></LinearRing></outerBoundaryIs></Polygon><Polygon><outerBoundaryIs><LinearRing><coordinates>20.505325,52.3793529 20.5059834,52.3798168 20.5055619,52.3800099 20.5042435,52.3795059 20.5041978,52.3793208 20.505325,52.3793529</coordinates></LinearRing></outerBoundaryIs></Polygon><Polygon><outerBoundaryIs><LinearRing><coordinates>20.5059331,52.3763979 20.4971611,52.3801297 20.4965379,52.3801279 20.5054553,52.3762951 20.5059331,52.3763979</coordinates></LinearRing></outerBoundaryIs></Polygon><Polygon><outerBoundaryIs><LinearRing><coordinates>20.4993982,52.3748574 20.5007634,52.3752481 20.4974614,52.3766916 20.4956209,52.3764705 20.4993982,52.3748574</coordinates></LinearRing></outerBoundaryIs></Polygon><Polygon><outerBoundaryIs><LinearRing><coordinates>20.4938965,52.3731563 20.4918042,52.3740535 20.4912734,52.3735898 20.4930849,52.3727876 20.4938965,52.3731563</coordinates></LinearRing></outerBoundaryIs></Polygon><Polygon><outerBoundaryIs><LinearRing><coordinates>20.4862892,52.3723804 20.4857008,52.3720305 20.489399,52.3704359 20.4902127,52.370687 20.4862892,52.3723804</coordinates></LinearRing></outerBoundaryIs></Polygon><Polygon><outerBoundaryIs><LinearRing><coordinates>20.4788404,52.3727225 20.4781083,52.3723348 20.4836362,52.3699413 20.4838715,52.3702499 20.4786253,52.3725749 20.4840071,52.3702578 20.4837335,52.369899 20.4857727,52.3690391 20.4869956,52.3692477 20.4788404,52.3727225</coordinates></LinearRing></outerBoundaryIs></Polygon><Polygon><outerBoundaryIs><LinearRing><coordinates>20.4701288,52.3650726 20.4683092,52.3658846 20.4672946,52.3651711 20.4685238,52.3646504 20.4701288,52.3650726</coordinates></LinearRing></outerBoundaryIs></Polygon><Polygon><outerBoundaryIs><LinearRing><coordinates>20.5483918,52.389395 20.5481689,52.3921696 20.5475916,52.3921098 20.5478431,52.3891478 20.5483918,52.389395</coordinates></LinearRing></outerBoundaryIs></Polygon><Polygon><outerBoundaryIs><LinearRing><coordinates>20.5489833,52.3896613 20.548807,52.3922338 20.5482117,52.3921739 20.548436,52.3894146 20.5489833,52.3896613</coordinates></LinearRing></outerBoundaryIs></Polygon><Polygon><outerBoundaryIs><LinearRing><coordinates>20.5498714,52.3955245 20.547858,52.3953995 20.5479083,52.3948844 20.5473979,52.3948608 20.5474263,52.3944278 20.5482547,52.3940258 20.5486858,52.39405 20.5487178,52.3947702 20.5500554,52.3947296 20.5498714,52.3955245</coordinates></LinearRing></outerBoundaryIs></Polygon><Polygon><outerBoundaryIs><LinearRing><coordinates>20.5363828,52.4026205 20.5356563,52.4039762 20.535109,52.4038947 20.5357771,52.40263 20.5363828,52.4026205</coordinates></LinearRing></outerBoundaryIs></Polygon><Polygon><outerBoundaryIs><LinearRing><coordinates>20.664668,52.3921404 20.6640681,52.3921293 20.6641347,52.3906651 20.6647411,52.39066 20.664668,52.3921404</coordinates></LinearRing></outerBoundaryIs></Polygon><Polygon><outerBoundaryIs><LinearRing><coordinates>20.6628193,52.3870727 20.6633862,52.3871681 20.6633423,52.3885319 20.662485,52.3881205 20.6624545,52.3875729 20.6627931,52.3876023 20.6628193,52.3870727</coordinates></LinearRing></outerBoundaryIs></Polygon><Polygon><outerBoundaryIs><LinearRing><coordinates>20.6624777,52.387036 20.662367,52.3875383 20.6622013,52.3875239 20.6623152,52.3870182 20.6624777,52.387036</coordinates></LinearRing></outerBoundaryIs></Polygon><Polygon><outerBoundaryIs><LinearRing><coordinates>20.6625556,52.3896446 20.6625098,52.3884211 20.6624874,52.3881912 20.6633452,52.3886003 20.6634717,52.3896171 20.6625556,52.3896446</coordinates></LinearRing></outerBoundaryIs></Polygon><Polygon><outerBoundaryIs><LinearRing><coordinates>20.6671825,52.3872101 20.6670642,52.3885247 20.6672213,52.3887403 20.667384,52.3871936 20.6677734,52.3871618 20.6676042,52.3892657 20.6677662,52.389488 20.665482,52.3895566 20.6650521,52.3893209 20.6648618,52.3872774 20.6661534,52.3872752 20.6669511,52.3883696 20.6670508,52.3872209 20.6671825,52.3872101</coordinates></LinearRing></outerBoundaryIs></Polygon><Polygon><outerBoundaryIs><LinearRing><coordinates>20.67187,52.3894414 20.6722409,52.3853203 20.6750901,52.3855858 20.6754994,52.3906022 20.6803883,52.3903989 20.677886,52.3917928 20.6755239,52.3928818 20.6755807,52.3930365 20.6785846,52.3942837 20.6779776,52.3960288 20.6748394,52.3952281 20.673656,52.3946297 20.6721523,52.3942475 20.6693402,52.3941323 20.6691838,52.3938235 20.6678738,52.3932311 20.6664685,52.3929345 20.6661543,52.3926303 20.6646935,52.3923491 20.6647852,52.3906595 20.6691908,52.3907853 20.668502,52.3901362 20.6683325,52.3894769 20.67187,52.3894414</coordinates></LinearRing></outerBoundaryIs></Polygon><Polygon><outerBoundaryIs><LinearRing><coordinates>20.6935252,52.4197269 20.6934882,52.4207963 20.6930688,52.4218718 20.6924768,52.4224274 20.6912958,52.4231252 20.6896658,52.4236034 20.68774,52.4212482 20.6873748,52.4204465 20.6876474,52.4192228 20.6887764,52.4197199 20.6909052,52.4184066 20.6913428,52.4187834 20.6922076,52.41831 20.693347,52.4182961 20.6935553,52.4189774 20.693328,52.418987 20.6935252,52.4197269</coordinates></LinearRing></outerBoundaryIs></Polygon><Polygon><outerBoundaryIs><LinearRing><coordinates>20.6131591,52.4061546 20.62298,52.4094304 20.6249135,52.4098723 20.6250379,52.4100115 20.6235086,52.4103306 20.6131591,52.4061546</coordinates></LinearRing></outerBoundaryIs></Polygon><Polygon><outerBoundaryIs><LinearRing><coordinates>20.7978389,52.2965729 20.797377,52.2967239 20.7972268,52.2962573 20.7969392,52.2962921 20.7953952,52.2918405 20.7959486,52.2902908 20.7973307,52.2945658 20.7969872,52.2946358 20.7978389,52.2965729</coordinates></LinearRing></outerBoundaryIs></Polygon><Polygon><outerBoundaryIs><LinearRing><coordinates>20.7970824,52.2884229 20.7993942,52.2960602 20.7992409,52.2961101 20.7969455,52.2886078 20.7970824,52.2884229</coordinates></LinearRing></outerBoundaryIs></Polygon><Polygon><outerBoundaryIs><LinearRing><coordinates>20.79581,52.2844633 20.7970151,52.2882377 20.7968714,52.2884035 20.7956557,52.2845593 20.79581,52.2844633</coordinates></LinearRing></outerBoundaryIs></Polygon><Polygon><outerBoundaryIs><LinearRing><coordinates>20.801196,52.2852449 20.8008067,52.285308 20.8004175,52.2840234 20.8006878,52.2836201 20.801196,52.2852449</coordinates></LinearRing></outerBoundaryIs></Polygon><Polygon><outerBoundaryIs><LinearRing><coordinates>20.8092351,52.2860123 20.8096209,52.2872617 20.8092657,52.2872981 20.8090117,52.2864964 20.809301,52.2864589 20.8090176,52.2864873 20.8088799,52.2860527 20.8092351,52.2860123</coordinates></LinearRing></outerBoundaryIs></Polygon><Polygon><outerBoundaryIs><LinearRing><coordinates>20.8012875,52.2860009 20.8014911,52.2861837 20.8016818,52.2867983 20.8015368,52.2868157 20.8012875,52.2860009</coordinates></LinearRing></outerBoundaryIs></Polygon><Polygon><outerBoundaryIs><LinearRing><coordinates>20.8091776,52.3020465 20.8086218,52.3021311 20.8084537,52.3017362 20.8090142,52.3016568 20.8091776,52.3020465</coordinates></LinearRing></outerBoundaryIs></Polygon><Polygon><outerBoundaryIs><LinearRing><coordinates>20.8122399,52.2973723 20.8114898,52.2975409 20.8113763,52.2973509 20.8121375,52.29718 20.8122399,52.2973723</coordinates></LinearRing></outerBoundaryIs></Polygon><Polygon><outerBoundaryIs><LinearRing><coordinates>20.8169273,52.2989171 20.8163384,52.2990532 20.8161781,52.2987941 20.8167678,52.298659 20.8169273,52.2989171</coordinates></LinearRing></outerBoundaryIs></Polygon><Polygon><outerBoundaryIs><LinearRing><coordinates>20.8189885,52.294542 20.8187989,52.294611 20.8183865,52.294186 20.8185732,52.2941172 20.8189885,52.294542</coordinates></LinearRing></outerBoundaryIs></Polygon><Polygon><outerBoundaryIs><LinearRing><coordinates>20.8186422,52.2939211 20.8178775,52.2941934 20.8176127,52.2937576 20.818263,52.2935268 20.8186422,52.2939211</coordinates></LinearRing></outerBoundaryIs></Polygon><Polygon><outerBoundaryIs><LinearRing><coordinates>20.8420457,52.2821951 20.8418164,52.2831776 20.8406014,52.2827779 20.8378859,52.2824301 20.8361592,52.2818198 20.8345386,52.2814586 20.8346403,52.2798919 20.8376269,52.2805602 20.8387212,52.2812187 20.8397787,52.2817228 20.8413665,52.2821562 20.8420457,52.2821951</coordinates></LinearRing></outerBoundaryIs></Polygon><Polygon><outerBoundaryIs><LinearRing><coordinates>20.8350734,52.2732236 20.8376151,52.2730803 20.8378604,52.2713943 20.8425021,52.271439 20.8425912,52.2729159 20.8430022,52.2748771 20.8426166,52.2774801 20.8412305,52.2774598 20.840854,52.2782331 20.841177,52.2787093 20.8426326,52.2786698 20.8426273,52.2795026 20.8420597,52.2821395 20.8413841,52.2821216 20.8398106,52.2816924 20.8376542,52.2805279 20.8346431,52.2798473 20.8350734,52.2732236</coordinates></LinearRing></outerBoundaryIs></Polygon><Polygon><outerBoundaryIs><LinearRing><coordinates>20.8443519,52.3020105 20.8455256,52.3021348 20.8454925,52.3024615 20.8442377,52.3024138 20.8443519,52.3020105</coordinates></LinearRing></outerBoundaryIs></Polygon><Polygon><outerBoundaryIs><LinearRing><coordinates>20.8775732,52.3183289 20.8777542,52.3195245 20.8765156,52.3196297 20.8763395,52.3184707 20.8775732,52.3183289</coordinates></LinearRing></outerBoundaryIs></Polygon><Polygon><outerBoundaryIs><LinearRing><coordinates>20.8874074,52.3132128 20.8876089,52.3141629 20.8853626,52.3144715 20.8853685,52.3133635 20.8874074,52.3132128</coordinates></LinearRing></outerBoundaryIs></Polygon><Polygon><outerBoundaryIs><LinearRing><coordinates>20.8876194,52.314212 20.8878026,52.3150763 20.885352,52.3162009 20.8853625,52.3144992 20.8876194,52.314212</coordinates></LinearRing></outerBoundaryIs></Polygon><Polygon><outerBoundaryIs><LinearRing><coordinates>20.864891,52.325626 20.8644514,52.3258879 20.8642386,52.3256579 20.8647372,52.3254668 20.864891,52.325626</coordinates></LinearRing></outerBoundaryIs></Polygon><Polygon><outerBoundaryIs><LinearRing><coordinates>20.872631,52.3257298 20.8724548,52.326093 20.8725858,52.3262293 20.8713667,52.3266935 20.8707856,52.3260879 20.8723803,52.3254817 20.872631,52.3257298</coordinates></LinearRing></outerBoundaryIs></Polygon><Polygon><outerBoundaryIs><LinearRing><coordinates>20.7201985,52.3917349 20.719393,52.3930126 20.7191421,52.3930373 20.7186347,52.3923025 20.717908,52.3920198 20.7167569,52.3918483 20.7161995,52.3911936 20.7172382,52.3913569 20.717408,52.3911032 20.7167643,52.3908878 20.7165099,52.3912008 20.7150079,52.3910515 20.7146882,52.3907494 20.7138086,52.3906894 20.7130494,52.3899781 20.7121469,52.3894868 20.7129242,52.3886073 20.710811,52.3880234 20.7104076,52.3877517 20.7104457,52.3875491 20.7131928,52.3883566 20.7136219,52.3877849 20.7146902,52.3874823 20.7149368,52.3877621 20.7165669,52.3870094 20.7183733,52.3873076 20.7197822,52.3877966 20.7208371,52.388848 20.7213657,52.3897533 20.7212119,52.3899561 20.7215321,52.3917667 20.7222717,52.3922335 20.7223026,52.3924952 20.7217154,52.3924377 20.7201985,52.3917349</coordinates></LinearRing></outerBoundaryIs></Polygon><Polygon><outerBoundaryIs><LinearRing><coordinates>20.6892307,52.3838939 20.6922168,52.3839219 20.6941074,52.3848562 20.6965156,52.385025 20.6965528,52.3871975 20.6964248,52.3876633 20.6903091,52.3873995 20.6906341,52.3856891 20.6887802,52.3854477 20.6892307,52.3838939</coordinates></LinearRing></outerBoundaryIs></Polygon><Polygon><outerBoundaryIs><LinearRing><coordinates>20.7964865,52.2892258 20.797981,52.2938835 20.7987194,52.2958078 20.7983618,52.295873 20.7978605,52.2946611 20.7962747,52.2896399 20.7964865,52.2892258</coordinates></LinearRing></outerBoundaryIs></Polygon><Polygon><outerBoundaryIs><LinearRing><coordinates>20.7079965,52.2798268 20.7078099,52.2798293 20.7073878,52.2781636 20.7074132,52.2775975 20.7082714,52.2779718 20.7081134,52.2784024 20.7075797,52.2783107 20.7079965,52.2798268</coordinates></LinearRing></outerBoundaryIs></Polygon><Polygon><outerBoundaryIs><LinearRing><coordinates>20.7045124,52.2713232 20.7040697,52.271385 20.7024708,52.2672538 20.7029044,52.2671753 20.7045124,52.2713232</coordinates></LinearRing></outerBoundaryIs></Polygon><Polygon><outerBoundaryIs><LinearRing><coordinates>20.7034341,52.2714737 20.7044649,52.2732822 20.7066579,52.2771061 20.7055312,52.2765798 20.7026735,52.2715801 20.7034341,52.2714737</coordinates></LinearRing></outerBoundaryIs></Polygon><Polygon><outerBoundaryIs><LinearRing><coordinates>20.7004311,52.2718933 20.7023922,52.2753627 20.7011827,52.2748886 20.7008616,52.2742878 20.7004039,52.2743891 20.6990879,52.2720797 20.7004311,52.2718933</coordinates></LinearRing></outerBoundaryIs></Polygon><Polygon><outerBoundaryIs><LinearRing><coordinates>20.7057941,52.2667313 20.7072794,52.2680126 20.7086552,52.2707533 20.7058489,52.271139 20.704162,52.2668557 20.7057941,52.2667313</coordinates></LinearRing></outerBoundaryIs></Polygon><Polygon><outerBoundaryIs><LinearRing><coordinates>20.7119302,52.2774229 20.7093797,52.2778286 20.7097097,52.2785286 20.7090724,52.2782 20.7082505,52.2769077 20.7076663,52.2769934 20.7079599,52.2777144 20.7075563,52.2775383 20.7041146,52.2714154 20.7086708,52.270788 20.7098708,52.2735155 20.7119302,52.2774229</coordinates></LinearRing></outerBoundaryIs></Polygon><Polygon><outerBoundaryIs><LinearRing><coordinates>20.7167723,52.2786155 20.7164817,52.2786413 20.7158508,52.2773715 20.7161445,52.2773669 20.7167723,52.2786155</coordinates></LinearRing></outerBoundaryIs></Polygon><Polygon><outerBoundaryIs><LinearRing><coordinates>20.7310842,52.2843227 20.7305886,52.2842101 20.7303962,52.2838129 20.7308096,52.2837688 20.7310842,52.2843227</coordinates></LinearRing></outerBoundaryIs></Polygon><Polygon><outerBoundaryIs><LinearRing><coordinates>20.7427934,52.2823492 20.7424459,52.282393 20.742107,52.2816662 20.7424344,52.2816049 20.7427934,52.2823492</coordinates></LinearRing></outerBoundaryIs></Polygon><Polygon><outerBoundaryIs><LinearRing><coordinates>20.7401351,52.2698438 20.7401984,52.2719209 20.7390836,52.2722686 20.7383274,52.26977 20.7401351,52.2698438</coordinates></LinearRing></outerBoundaryIs></Polygon><Polygon><outerBoundaryIs><LinearRing><coordinates>20.7505839,52.275876 20.7401838,52.2760151 20.7390222,52.2724419 20.743453,52.2710886 20.7465705,52.2704324 20.7475297,52.2699878 20.7479524,52.2699231 20.7503981,52.2703487 20.7505839,52.275876</coordinates></LinearRing></outerBoundaryIs></Polygon><Polygon><outerBoundaryIs><LinearRing><coordinates>20.6968685,52.2728821 20.6960993,52.2725171 20.6966373,52.2724375 20.6968685,52.2728821</coordinates></LinearRing></outerBoundaryIs></Polygon><Polygon><outerBoundaryIs><LinearRing><coordinates>20.4670464,52.2622121 20.4645109,52.262785 20.4643834,52.2626434 20.4648988,52.262527 20.4647262,52.262225 20.4642108,52.2623415 20.464139,52.2622156 20.4666896,52.2615884 20.4670464,52.2622121</coordinates></LinearRing></outerBoundaryIs></Polygon><Polygon><outerBoundaryIs><LinearRing><coordinates>20.5853962,52.2612913 20.5852438,52.2605259 20.5841095,52.2606095 20.5839963,52.2597984 20.5853057,52.2597058 20.5854681,52.2605074 20.5867058,52.2604158 20.5868646,52.2610616 20.5862798,52.2610581 20.5853962,52.2612913</coordinates></LinearRing></outerBoundaryIs></Polygon><Polygon><outerBoundaryIs><LinearRing><coordinates>20.4439374,52.2768261 20.4432179,52.2769377 20.4433255,52.2772905 20.4429656,52.2773881 20.4426345,52.2762728 20.4437151,52.2760978 20.4439374,52.2768261</coordinates></LinearRing></outerBoundaryIs></Polygon><Polygon><outerBoundaryIs><LinearRing><coordinates>20.4414606,52.2763439 20.4409788,52.2764281 20.4404213,52.2747963 20.4409207,52.2747545 20.4414606,52.2763439</coordinates></LinearRing></outerBoundaryIs></Polygon><Polygon><outerBoundaryIs><LinearRing><coordinates>20.4403614,52.276536 20.4400648,52.2765878 20.439454,52.2748771 20.4397827,52.2748496 20.4403614,52.276536</coordinates></LinearRing></outerBoundaryIs></Polygon><Polygon><outerBoundaryIs><LinearRing><coordinates>20.4423258,52.2775338 20.4400352,52.2780509 20.4396341,52.2767203 20.4419877,52.2763346 20.4423258,52.2775338</coordinates></LinearRing></outerBoundaryIs></Polygon><Polygon><outerBoundaryIs><LinearRing><coordinates>20.441524,52.2778189 20.4408948,52.2785157 20.4402592,52.2790165 20.440007,52.2781305 20.441524,52.2778189</coordinates></LinearRing></outerBoundaryIs></Polygon><Polygon><outerBoundaryIs><LinearRing><coordinates>20.4286177,52.2825529 20.4282866,52.2826245 20.4273263,52.2796392 20.4276735,52.2795457 20.4286177,52.2825529</coordinates></LinearRing></outerBoundaryIs></Polygon><Polygon><outerBoundaryIs><LinearRing><coordinates>20.4296609,52.282327 20.4286979,52.2825355 20.4277405,52.2795276 20.428719,52.2792641 20.4296609,52.282327</coordinates></LinearRing></outerBoundaryIs></Polygon><Polygon><outerBoundaryIs><LinearRing><coordinates>20.4314454,52.2819406 20.4310288,52.2820308 20.4300465,52.2789067 20.430465,52.278794 20.4314454,52.2819406</coordinates></LinearRing></outerBoundaryIs></Polygon><Polygon><outerBoundaryIs><LinearRing><coordinates>20.4320757,52.2805518 20.4323528,52.2817441 20.4320053,52.2805595 20.4320757,52.2805518</coordinates></LinearRing></outerBoundaryIs></Polygon><Polygon><outerBoundaryIs><LinearRing><coordinates>20.4314847,52.2785194 20.4319938,52.2805201 20.4314128,52.2785388 20.4314847,52.2785194</coordinates></LinearRing></outerBoundaryIs></Polygon><Polygon><outerBoundaryIs><LinearRing><coordinates>20.4390349,52.2802968 20.4384604,52.2804215 20.4384228,52.2802955 20.4389125,52.279896 20.4390349,52.2802968</coordinates></LinearRing></outerBoundaryIs></Polygon><Polygon><outerBoundaryIs><LinearRing><coordinates>20.4388992,52.2798523 20.4384125,52.280261 20.4379801,52.2788134 20.4385132,52.2785881 20.4388992,52.2798523</coordinates></LinearRing></outerBoundaryIs></Polygon><Polygon><outerBoundaryIs><LinearRing><coordinates>20.4385015,52.2785496 20.4379683,52.2787741 20.4374631,52.2770826 20.4380246,52.2769875 20.4385015,52.2785496</coordinates></LinearRing></outerBoundaryIs></Polygon><Polygon><outerBoundaryIs><LinearRing><coordinates>20.4379243,52.2788182 20.4370008,52.2792764 20.4364081,52.2773098 20.4374254,52.2771365 20.4379243,52.2788182</coordinates></LinearRing></outerBoundaryIs></Polygon><Polygon><outerBoundaryIs><LinearRing><coordinates>20.4355598,52.2810504 20.4348161,52.2812113 20.4345205,52.2802755 20.4352601,52.2800727 20.4355598,52.2810504</coordinates></LinearRing></outerBoundaryIs></Polygon><Polygon><outerBoundaryIs><LinearRing><coordinates>20.4352474,52.2800313 20.4345096,52.280241 20.4337714,52.2779035 20.4345323,52.2776986 20.4352474,52.2800313</coordinates></LinearRing></outerBoundaryIs></Polygon><Polygon><outerBoundaryIs><LinearRing><coordinates>20.4330238,52.278046 20.4322259,52.2782595 20.4314201,52.2754681 20.4322508,52.2754008 20.4330238,52.278046</coordinates></LinearRing></outerBoundaryIs></Polygon><Polygon><outerBoundaryIs><LinearRing><coordinates>20.4345163,52.2776466 20.4337546,52.2778504 20.4330055,52.2753396 20.433848,52.2752714 20.4345163,52.2776466</coordinates></LinearRing></outerBoundaryIs></Polygon><Polygon><outerBoundaryIs><LinearRing><coordinates>20.4319591,52.2724533 20.4327807,52.2752734 20.4301463,52.2754596 20.4292818,52.272596 20.4319591,52.2724533</coordinates></LinearRing></outerBoundaryIs></Polygon><Polygon><outerBoundaryIs><LinearRing><coordinates>20.4128851,52.269534 20.4057755,52.2698551 20.4058511,52.268421 20.4046252,52.2682879 20.4037815,52.2684819 20.4037782,52.2666196 20.3960227,52.2664787 20.3960156,52.2663532 20.3954344,52.266307 20.3933527,52.2664185 20.3907119,52.2662888 20.3904752,52.2657597 20.3958094,52.2653561 20.39581,52.2652175 20.4027386,52.2649606 20.4027326,52.2647888 20.4045082,52.264796 20.4044938,52.2643813 20.4097774,52.2643033 20.4106728,52.2640714 20.4133917,52.2638836 20.4142313,52.2636905 20.4134887,52.266292 20.4121522,52.2669602 20.4118884,52.2673253 20.4126125,52.2691868 20.4128851,52.269534</coordinates></LinearRing></outerBoundaryIs></Polygon><Polygon><outerBoundaryIs><LinearRing><coordinates>20.4058677,52.2700688 20.4064338,52.2712783 20.405931,52.2713595 20.4053275,52.2700741 20.4058677,52.2700688</coordinates></LinearRing></outerBoundaryIs></Polygon><Polygon><outerBoundaryIs><LinearRing><coordinates>20.4191907,52.2818358 20.4182661,52.2800527 20.4168696,52.2770035 20.4177445,52.2768577 20.4197416,52.2817012 20.4191907,52.2818358</coordinates></LinearRing></outerBoundaryIs></Polygon><Polygon><outerBoundaryIs><LinearRing><coordinates>20.3093028,52.3182771 20.3125067,52.3207874 20.3119625,52.3220346 20.3076754,52.3237327 20.2959703,52.324746 20.2968899,52.3218902 20.300666,52.3211496 20.3093028,52.3182771</coordinates></LinearRing></outerBoundaryIs></Polygon><Polygon><outerBoundaryIs><LinearRing><coordinates>20.3152728,52.2871398 20.3037527,52.2898391 20.3034033,52.2894191 20.3027115,52.2894017 20.2991781,52.2898729 20.2988175,52.2888545 20.2989164,52.2849106 20.3004368,52.2842242 20.3024654,52.282328 20.3051737,52.2814901 20.3080397,52.2811618 20.3113626,52.2812005 20.3123202,52.2810629 20.3155699,52.2840365 20.3115337,52.2860625 20.3138513,52.2870438 20.3151955,52.2866751 20.3152728,52.2871398</coordinates></LinearRing></outerBoundaryIs></Polygon><Polygon><outerBoundaryIs><LinearRing><coordinates>20.319874,52.2949437 20.3188567,52.2958241 20.3176067,52.2936845 20.3183937,52.293809 20.3185341,52.2945641 20.3195908,52.294466 20.319874,52.2949437</coordinates></LinearRing></outerBoundaryIs></Polygon><Polygon><outerBoundaryIs><LinearRing><coordinates>20.3263529,52.2987261 20.325611,52.2990492 20.3248589,52.2977893 20.3256426,52.2976366 20.3263529,52.2987261</coordinates></LinearRing></outerBoundaryIs></Polygon><Polygon><outerBoundaryIs><LinearRing><coordinates>20.3376834,52.2961565 20.3345804,52.2969385 20.3339827,52.2967744 20.3368241,52.2958287 20.336177,52.2947679 20.3366468,52.2946176 20.3376834,52.2961565</coordinates></LinearRing></outerBoundaryIs></Polygon><Polygon><outerBoundaryIs><LinearRing><coordinates>20.3155897,52.3351279 20.3168714,52.336686 20.3209753,52.3417247 20.3208332,52.3417673 20.3154183,52.3351436 20.3077473,52.3322451 20.3155897,52.3351279</coordinates></LinearRing></outerBoundaryIs></Polygon><Polygon><outerBoundaryIs><LinearRing><coordinates>20.2818411,52.3444689 20.2821003,52.3459511 20.2792246,52.3466812 20.279199,52.3478361 20.2788681,52.3482814 20.277345,52.3487493 20.2766763,52.3487346 20.2751947,52.3483953 20.2727014,52.346863 20.2710738,52.3465064 20.2673433,52.3461743 20.2654583,52.3441176 20.2646818,52.3440193 20.2634863,52.342792 20.269166,52.3424723 20.269297,52.3421727 20.270099,52.3418963 20.2699617,52.3417991 20.2691672,52.3420203 20.2692537,52.3414785 20.2695712,52.3413025 20.2693978,52.3399894 20.275681,52.3396527 20.2760229,52.3418237 20.2755598,52.3418625 20.2758318,52.3425442 20.2773927,52.3423761 20.2777234,52.3438595 20.2791329,52.3438405 20.2794652,52.3445671 20.2818411,52.3444689</coordinates></LinearRing></outerBoundaryIs></Polygon><Polygon><outerBoundaryIs><LinearRing><coordinates>20.2762749,52.3540424 20.2797217,52.3520208 20.2807869,52.3520738 20.2801077,52.3537604 20.2798113,52.3531834 20.2762749,52.3540424</coordinates></LinearRing></outerBoundaryIs></Polygon><Polygon><outerBoundaryIs><LinearRing><coordinates>20.28451,52.3531231 20.2843986,52.3535994 20.2805987,52.3531314 20.2807214,52.3526928 20.28451,52.3531231</coordinates></LinearRing></outerBoundaryIs></Polygon><Polygon><outerBoundaryIs><LinearRing><coordinates>20.2795463,52.3520236 20.2762389,52.3539674 20.2754869,52.3525132 20.2761722,52.3525297 20.2761862,52.3517507 20.2770929,52.3517508 20.2771725,52.3513551 20.2776525,52.3513554 20.2784735,52.3519705 20.2795463,52.3520236</coordinates></LinearRing></outerBoundaryIs></Polygon><Polygon><outerBoundaryIs><LinearRing><coordinates>20.2614281,52.3679669 20.2612457,52.3679694 20.2612402,52.3678782 20.2614281,52.3679669</coordinates></LinearRing></outerBoundaryIs></Polygon><Polygon><outerBoundaryIs><LinearRing><coordinates>20.2608728,52.3677026 20.2609061,52.3679682 20.2607081,52.3679757 20.2606583,52.3676253 20.2608728,52.3677026</coordinates></LinearRing></outerBoundaryIs></Polygon><Polygon><outerBoundaryIs><LinearRing><coordinates>20.2602665,52.3674352 20.2603616,52.3679879 20.2601558,52.3679954 20.260047,52.36737 20.2602665,52.3674352</coordinates></LinearRing></outerBoundaryIs></Polygon><Polygon><outerBoundaryIs><LinearRing><coordinates>20.6675528,52.3830921 20.6678039,52.383177 20.6685153,52.3833979 20.6676832,52.3833422 20.6675528,52.3830921</coordinates></LinearRing></outerBoundaryIs></Polygon><Polygon><outerBoundaryIs><LinearRing><coordinates>20.8551686,52.3461461 20.8543162,52.3462794 20.8541537,52.3459077 20.8549819,52.3457692 20.8551686,52.3461461</coordinates></LinearRing></outerBoundaryIs></Polygon><Polygon><outerBoundaryIs><LinearRing><coordinates>20.8660275,52.3398619 20.8657184,52.3399804 20.8658636,52.3396807 20.8660275,52.3398619</coordinates></LinearRing></outerBoundaryIs></Polygon><Polygon><outerBoundaryIs><LinearRing><coordinates>20.4690926,52.2751697 20.4698891,52.2754601 20.4719516,52.2756328 20.471899,52.2758612 20.4682209,52.276397 20.4676082,52.2757783 20.4690926,52.2751697</coordinates></LinearRing></outerBoundaryIs></Polygon><Polygon><outerBoundaryIs><LinearRing><coordinates>20.3710641,52.2762857 20.3699032,52.2811614 20.3688102,52.2812184 20.3700054,52.2761857 20.3710641,52.2762857</coordinates></LinearRing></outerBoundaryIs></Polygon><Polygon><outerBoundaryIs><LinearRing><coordinates>20.8270352,52.2916321 20.8271258,52.2916373 20.8279792,52.2926665 20.8270352,52.2916321</coordinates></LinearRing></outerBoundaryIs></Polygon><Polygon><outerBoundaryIs><LinearRing><coordinates>20.824287,52.2816507 20.8205711,52.2820888 20.82133,52.2833871 20.822505,52.2845824 20.8244343,52.2854964 20.8259808,52.2866129 20.8264208,52.2874354 20.8274891,52.2884378 20.8230152,52.2904832 20.8197758,52.2916461 20.8171947,52.2836267 20.8164367,52.2839379 20.8166011,52.2845545 20.8161769,52.2845928 20.8160463,52.2841324 20.8151855,52.2845599 20.8152404,52.2847511 20.8147141,52.2847925 20.8088583,52.2846741 20.8088413,52.2838435 20.8044139,52.2835309 20.8011406,52.282963 20.8001537,52.2830892 20.7998377,52.2831369 20.7990935,52.2829871 20.7972873,52.2833985 20.7963534,52.2839653 20.7951411,52.2849588 20.7944761,52.2851413 20.7954961,52.2862898 20.7964295,52.2890334 20.7960942,52.2896354 20.7934968,52.2902027 20.7943696,52.2919108 20.7942646,52.2920133 20.7933519,52.2902236 20.7928029,52.2903954 20.7926931,52.2905151 20.793371,52.2918052 20.7894461,52.2940601 20.7863734,52.296348 20.7852252,52.2939781 20.7840269,52.2945362 20.7854929,52.2974394 20.7812502,52.2980423 20.7807147,52.2985617 20.7799533,52.2986545 20.779729,52.2990794 20.7791491,52.299471 20.7790965,52.2997913 20.7788024,52.3000734 20.775696,52.3006679 20.7755646,52.3009335 20.7758183,52.3014395 20.7755776,52.3014873 20.7755084,52.3013503 20.7755267,52.3018469 20.7750917,52.3030862 20.7734876,52.3034704 20.7714989,52.3036862 20.7714999,52.3038884 20.7709888,52.3041386 20.769043,52.3041851 20.7692958,52.304579 20.7691393,52.3046188 20.7688609,52.3041965 20.7690308,52.3041858 20.7678335,52.3042603 20.7671083,52.3044964 20.7660792,52.3054433 20.7653396,52.3055845 20.7650821,52.3058453 20.7641484,52.305895 20.7612507,52.3066263 20.7625641,52.3089081 20.7616674,52.3091922 20.7623902,52.3099496 20.7621172,52.3102964 20.7628774,52.3111434 20.76755,52.3096331 20.7704244,52.3098797 20.772715,52.3093081 20.773561,52.3081452 20.7755417,52.3063267 20.7785643,52.3064098 20.7788865,52.306336 20.7796546,52.3057045 20.7810349,52.305311 20.7816079,52.3047217 20.7835888,52.3035516 20.7831084,52.3025994 20.7832988,52.3025634 20.7837701,52.3034992 20.7851224,52.3024094 20.7885876,52.3016502 20.7887881,52.3017612 20.7891721,52.3015448 20.7894965,52.3021918 20.7890568,52.3022894 20.7906232,52.3024694 20.7907664,52.3024367 20.790634,52.3021678 20.7904807,52.3021965 20.790351,52.3019342 20.7905094,52.3019156 20.7902374,52.3013768 20.7913367,52.3013047 20.791809,52.3022324 20.7919546,52.3022048 20.7915137,52.3012915 20.7921407,52.3011904 20.7935515,52.303971 20.7961927,52.3035357 20.7947394,52.300657 20.7913668,52.3012001 20.7892903,52.3012947 20.7885886,52.3016497 20.7883845,52.3012384 20.7879582,52.3013256 20.7861113,52.2976701 20.7901579,52.2946448 20.7929899,52.2930409 20.7931011,52.2931383 20.7936583,52.2927859 20.7935858,52.292645 20.7937578,52.2925287 20.7938319,52.2926765 20.7948191,52.292212 20.7965296,52.2971608 20.798966,52.2963765 20.8031714,52.3054792 20.803763,52.3064766 20.8100702,52.3056681 20.8107159,52.3057777 20.8166767,52.3048542 20.8159641,52.3034758 20.8192447,52.3028245 20.8208328,52.3030873 20.8221064,52.3011175 20.8191158,52.2961846 20.8225603,52.2943192 20.8222821,52.2940265 20.822855,52.2938211 20.8230182,52.2940607 20.8242866,52.29254 20.8250039,52.2923572 20.8258652,52.2932481 20.8263047,52.2931272 20.8264147,52.2934204 20.8281414,52.293218 20.8277633,52.2917209 20.8271027,52.2916094 20.8290959,52.2909052 20.8304636,52.2909498 20.8358632,52.2881719 20.8356899,52.2878341 20.8362597,52.2876662 20.8362089,52.2872865 20.8355655,52.2876176 20.8345777,52.2859174 20.8375056,52.2856763 20.8389162,52.2851807 20.8405657,52.2851935 20.8390369,52.288921 20.8395317,52.2904833 20.8387965,52.2925701 20.8397789,52.294286 20.8361714,52.2950471 20.8340924,52.2950117 20.8323061,52.2953705 20.8338296,52.2996662 20.8342895,52.2998794 20.8346492,52.300806 20.8348332,52.3009242 20.8353388,52.3037733 20.8367779,52.3035892 20.8378234,52.3038216 20.8386893,52.3037885 20.8418988,52.3033338 20.8422144,52.3027352 20.8429213,52.3025876 20.8457698,52.3027502 20.8471129,52.3026788 20.8472255,52.3018043 20.8474222,52.3017338 20.8478031,52.3004367 20.846946,52.3003825 20.8467113,52.3000668 20.8468516,52.2995734 20.8496282,52.2995209 20.8494651,52.2995035 20.8494363,52.2982662 20.8502736,52.2983403 20.8498147,52.2977986 20.8504789,52.29752 20.8494757,52.2968475 20.8502951,52.2972735 20.8504147,52.297221 20.8498024,52.2968039 20.8505362,52.2971655 20.8511291,52.2969777 20.8505552,52.2965802 20.8508194,52.2965069 20.851545,52.2969189 20.8509137,52.2964755 20.8510055,52.296372 20.8530813,52.2977942 20.8556947,52.2964545 20.8582078,52.2964536 20.8580399,52.2957908 20.8562476,52.2923918 20.8565098,52.292352 20.8559372,52.2914839 20.8567938,52.2910122 20.8569703,52.2913701 20.8581552,52.2911449 20.8598825,52.2912001 20.8615348,52.2917659 20.8619581,52.2913014 20.8681509,52.2934199 20.8771035,52.2940568 20.8771421,52.2945571 20.8765612,52.2965423 20.8765705,52.2979336 20.875797,52.2986561 20.8796339,52.3082548 20.8804655,52.3091652 20.8796021,52.3102612 20.8792511,52.3110611 20.8783282,52.312055 20.8754385,52.3141008 20.875683,52.3148516 20.8763848,52.3196409 20.8733017,52.3199584 20.8711309,52.3210978 20.8701341,52.3217993 20.8621382,52.3256843 20.8657705,52.3322174 20.8644366,52.3318439 20.8637022,52.3319996 20.8630716,52.3323518 20.8622203,52.332385 20.8612323,52.3320921 20.8617013,52.3329829 20.8605332,52.3329742 20.8623351,52.3371249 20.8588421,52.3372908 20.85921,52.338624 20.8594565,52.3389156 20.8599233,52.3403235 20.8626777,52.3406378 20.8634604,52.3408851 20.863336,52.3418151 20.8628837,52.3422689 20.8610891,52.3429988 20.8578,52.3434135 20.8578859,52.3438554 20.8584127,52.3444699 20.8568986,52.3446479 20.8567232,52.3442465 20.8554047,52.3445283 20.8554875,52.3446973 20.8538368,52.3451611 20.8537824,52.3450168 20.8532192,52.3450509 20.8295666,52.3490469 20.8284462,52.3470706 20.826754,52.3463923 20.8274442,52.3475584 20.8268713,52.3476819 20.8261125,52.3464146 20.8258409,52.3464743 20.8255409,52.345939 20.8246434,52.3458124 20.8256852,52.3476046 20.8249682,52.3470832 20.8241475,52.3457409 20.8192802,52.3451671 20.8180941,52.3453121 20.8181436,52.3458912 20.8175209,52.3458377 20.8176927,52.346648 20.8210942,52.3488408 20.8174396,52.3493945 20.8178915,52.3516157 20.8158865,52.3524059 20.8167752,52.3529505 20.8105236,52.3554314 20.8055237,52.3568912 20.8053139,52.3567159 20.8029747,52.3576207 20.8040604,52.360109 20.8015688,52.3603826 20.8003977,52.3610655 20.8009632,52.3615161 20.7995831,52.361708 20.7962946,52.362743 20.7956273,52.3635152 20.7936489,52.3637723 20.7929656,52.3640253 20.7918933,52.3614195 20.7892901,52.3622218 20.7891838,52.3619669 20.7848303,52.3632963 20.780266,52.3641484 20.7738711,52.3657367 20.7713413,52.3662195 20.7679891,52.3666093 20.7640589,52.3676221 20.747044,52.3704982 20.7372053,52.3695462 20.7375864,52.3708556 20.7326161,52.3706614 20.7280136,52.3590782 20.7179986,52.364752 20.7175241,52.3636751 20.7047118,52.361608 20.6770562,52.359638 20.662542,52.3558414 20.6606515,52.3559972 20.6582753,52.3554265 20.6239679,52.3457058 20.622645,52.3475199 20.6291003,52.3650861 20.6292918,52.3661667 20.6293958,52.3731201 20.6287667,52.3728474 20.6241501,52.372494 20.6241721,52.3727942 20.6227059,52.3726995 20.6219658,52.3742775 20.6210574,52.3738323 20.6209683,52.3740613 20.6196393,52.3776211 20.6264152,52.3799084 20.6245508,52.3814035 20.6253992,52.3815738 20.6251403,52.3842271 20.6237627,52.3844208 20.6221062,52.3844164 20.6221395,52.385659 20.620615,52.3862923 20.6208688,52.3863779 20.6207675,52.386605 20.617765,52.3871206 20.617388,52.3871276 20.6155544,52.3860607 20.6142604,52.3856323 20.6126797,52.3851497 20.6110244,52.385014 20.6148077,52.3882221 20.616115,52.3885688 20.6183598,52.3900852 20.621775,52.391749 20.6236004,52.3919907 20.6277502,52.3932843 20.6348442,52.3937317 20.6407021,52.3935387 20.6406056,52.3923493 20.64094,52.3925508 20.6409772,52.3935433 20.6425487,52.3935205 20.6446783,52.3929773 20.6465413,52.3920158 20.6487212,52.3915186 20.6486108,52.3913518 20.6481024,52.3914737 20.6469547,52.3896601 20.6484441,52.3891827 20.6498677,52.3911925 20.6515409,52.3906966 20.6510981,52.3883824 20.6517341,52.3882044 20.6532531,52.3882811 20.6555144,52.3885539 20.6567107,52.3889735 20.6573634,52.388996 20.6576715,52.3888352 20.6572157,52.3905446 20.6573207,52.3912952 20.6580144,52.3937737 20.6588304,52.394367 20.6439406,52.3947757 20.6516668,52.4068001 20.6512883,52.4074242 20.6530074,52.4100574 20.6523662,52.4102216 20.6527668,52.4108369 20.6516704,52.4111067 20.6515102,52.4115187 20.6512893,52.4110937 20.6506006,52.4114382 20.6482294,52.4117919 20.6463772,52.4111886 20.6442338,52.411224 20.643437,52.4112628 20.6414738,52.4117856 20.6389058,52.4115525 20.6375934,52.4112569 20.635009,52.4116529 20.6312731,52.4111384 20.6289346,52.4116104 20.6288724,52.4108482 20.6273843,52.4108916 20.6253539,52.4112893 20.6245687,52.4107009 20.6238017,52.4104392 20.625735,52.4100936 20.6285587,52.4101236 20.6295448,52.4099408 20.630128,52.410362 20.6303525,52.4106991 20.6301679,52.4107278 20.6302235,52.4109025 20.6309847,52.4110284 20.6308187,52.4106267 20.6303956,52.4106925 20.6301661,52.4103479 20.6295878,52.4099301 20.6303116,52.4097105 20.6301427,52.4095664 20.6285244,52.4099627 20.6255403,52.4098935 20.6230701,52.4093223 20.6128514,52.4059127 20.5983492,52.4043077 20.5987504,52.4030518 20.598031,52.4029795 20.5995822,52.4000217 20.5992718,52.3992409 20.5986891,52.3985426 20.5981761,52.3994048 20.5980366,52.3993923 20.5973752,52.4008794 20.5966311,52.4007556 20.5963013,52.401497 20.597043,52.4016204 20.5962071,52.4040736 20.5944316,52.4038796 20.5965219,52.399223 20.5888014,52.3986743 20.5790651,52.3937985 20.5778735,52.3933302 20.5767499,52.3929435 20.5691797,52.3916761 20.5674358,52.3896289 20.5530313,52.3836027 20.5486225,52.3827974 20.546939,52.3820927 20.5444001,52.3814342 20.53585,52.3812408 20.5321026,52.3818121 20.5299813,52.3816731 20.5163048,52.3784364 20.5138286,52.3824687 20.512104,52.38168 20.5123941,52.3814721 20.5119158,52.3810971 20.5128463,52.3806068 20.5088242,52.3798906 20.5072485,52.3806478 20.5054008,52.3793041 20.5044131,52.3791181 20.5072432,52.3775308 20.5084106,52.3765698 20.5076304,52.3762373 20.5069104,52.3765509 20.5055466,52.3762558 20.5066119,52.3757978 20.5030148,52.3742506 20.5008172,52.3752026 20.4995092,52.3748332 20.5019914,52.3737985 20.5015554,52.3736059 20.4989499,52.3746778 20.4985824,52.3746039 20.5012477,52.37347 20.4977385,52.3715088 20.4939743,52.3731229 20.4931622,52.3727534 20.4970302,52.3710414 20.4965139,52.3707007 20.4933413,52.3693421 20.490298,52.3706731 20.4894538,52.3704126 20.4926001,52.3690719 20.4902096,52.3679203 20.4870911,52.3692266 20.4853778,52.3689217 20.4887542,52.3673718 20.4867995,52.3671113 20.483722,52.3684345 20.4830549,52.3682332 20.4859046,52.366992 20.4758779,52.3656777 20.4711342,52.3646432 20.4701869,52.3650478 20.4687642,52.3645145 20.4693476,52.3642593 20.4657333,52.3635125 20.4604901,52.3656773 20.4550133,52.3622133 20.452969,52.3656528 20.452035,52.3654449 20.4540554,52.3620897 20.4536458,52.3620369 20.4529959,52.3620034 20.4523121,52.3631391 20.4512911,52.3630031 20.4519208,52.3619479 20.4504798,52.3618485 20.4499126,52.3628233 20.4485652,52.3625331 20.4478729,52.363716 20.4472863,52.3636109 20.4483927,52.3617449 20.4460611,52.3616254 20.439207,52.3607897 20.4357772,52.3606066 20.4342185,52.3607238 20.4211769,52.3629989 20.4184995,52.363726 20.419386,52.3661649 20.4176618,52.3670856 20.4167214,52.3671187 20.4107513,52.3661005 20.4073907,52.3660029 20.4052247,52.3657635 20.4036167,52.3660382 20.4007308,52.3674637 20.3995272,52.3677246 20.3979235,52.36744 20.3935609,52.3661754 20.3900235,52.3661478 20.3872113,52.3668788 20.3870952,52.3670342 20.3871901,52.3691478 20.3808874,52.3729492 20.380453,52.3730017 20.3766084,52.3720002 20.3719894,52.3710235 20.3691262,52.3717062 20.3660566,52.3720409 20.3639306,52.3727331 20.3628605,52.3727309 20.358171,52.3718309 20.3565506,52.3717654 20.3540497,52.3712904 20.3516609,52.3727227 20.3511561,52.3728384 20.3468114,52.3728996 20.3449725,52.3723694 20.3434612,52.3722803 20.3415479,52.3697693 20.3258386,52.3696579 20.3208668,52.3687406 20.3162554,52.3692745 20.3108984,52.3687244 20.3074334,52.3689384 20.2974238,52.3721638 20.2899357,52.3722164 20.2856167,52.3730472 20.2850037,52.372881 20.2834867,52.3715992 20.2841695,52.3715089 20.2841758,52.3707964 20.2863626,52.3686067 20.2858045,52.3690828 20.2856988,52.3674476 20.2863061,52.3675121 20.2863573,52.3684528 20.286588,52.3683941 20.2865498,52.367538 20.2868623,52.3675712 20.286906,52.3682602 20.2866847,52.3683926 20.2884391,52.3676542 20.2879066,52.3656369 20.288174,52.3648633 20.2865292,52.3641102 20.2868167,52.3637505 20.2883187,52.3644496 20.2887006,52.3630919 20.2897015,52.3628234 20.2910883,52.3631628 20.2927051,52.3632704 20.2927324,52.3637677 20.294538,52.3636639 20.294607,52.3624579 20.295968,52.3626275 20.2966426,52.3623396 20.297381,52.3616278 20.2976151,52.3616072 20.297562,52.3606225 20.2967793,52.3594708 20.2966308,52.3594802 20.2966606,52.3586985 20.296294,52.3572515 20.2964507,52.3568295 20.2976563,52.3561167 20.297426,52.3537593 20.2975523,52.3531309 20.298099,52.3522827 20.2972702,52.3511717 20.2973419,52.3510302 20.3042267,52.3492032 20.3143114,52.3456534 20.3182141,52.3444404 20.3216241,52.3427171 20.3304336,52.3403712 20.3273732,52.3382811 20.3271692,52.3373128 20.3260337,52.3363871 20.3248393,52.3347617 20.3235365,52.334927 20.3219954,52.3330871 20.3201569,52.3330233 20.322904,52.3362898 20.3275939,52.3410611 20.3273531,52.3410944 20.322727,52.3362803 20.3199163,52.3330146 20.3179081,52.3329424 20.3219916,52.3311823 20.3163319,52.3262824 20.3175599,52.325472 20.3214584,52.3246264 20.3220865,52.3242053 20.3227984,52.3231224 20.3200017,52.3186709 20.3176555,52.3152958 20.3194709,52.3147616 20.3230943,52.3070645 20.3399534,52.3028038 20.3443259,52.3022349 20.3421727,52.2952254 20.3414043,52.2953378 20.3415109,52.2952211 20.3402523,52.2934646 20.347375,52.2911819 20.3466194,52.2886381 20.3482979,52.2876902 20.3534279,52.2873469 20.3596496,52.2876604 20.3634419,52.2872682 20.3636757,52.2864899 20.3626729,52.286479 20.3625745,52.286815 20.3623765,52.286795 20.3631778,52.2834553 20.3641782,52.2835332 20.3649314,52.2803716 20.3664126,52.2805885 20.3662081,52.2814106 20.380848,52.2805467 20.3816392,52.282587 20.3827813,52.2824173 20.3822029,52.2802578 20.384946,52.2811141 20.3851543,52.2816123 20.3870274,52.2815557 20.3870123,52.282037 20.3951445,52.2810733 20.3971571,52.2804666 20.3980168,52.2817761 20.4020495,52.285834 20.4048024,52.2847741 20.4049744,52.2849517 20.4022169,52.2859981 20.40504,52.28891 20.4060741,52.2888573 20.4081313,52.2878466 20.4026638,52.2823124 20.4075697,52.2821483 20.4065045,52.2797541 20.4069907,52.2796721 20.4081012,52.2821333 20.4193918,52.2818552 20.419837,52.2817255 20.4211441,52.2841089 20.4267251,52.2830102 20.4340065,52.2814292 20.4332441,52.2815513 20.4329089,52.2804677 20.4336776,52.2804016 20.4328981,52.2804327 20.4322431,52.2783152 20.4330405,52.2781004 20.4337398,52.2779661 20.4344692,52.2802869 20.4337587,52.280442 20.4344813,52.280323 20.4347734,52.2812645 20.4374363,52.2806653 20.437017,52.279315 20.4379405,52.2788594 20.4383747,52.2802957 20.4380031,52.2805515 20.4383869,52.2803317 20.4384338,52.2804651 20.4405633,52.2800028 20.4402764,52.2790658 20.4410837,52.2783848 20.4415854,52.277801 20.4422904,52.2776229 20.4428265,52.2795076 20.4435458,52.2793529 20.4429699,52.2774243 20.4432279,52.2773411 20.4433297,52.2773228 20.4438984,52.2792771 20.444821,52.2790936 20.4438432,52.2760378 20.4524966,52.2751222 20.4564824,52.2744242 20.4642523,52.2738271 20.4656179,52.2739919 20.4670464,52.2755441 20.4666048,52.275687 20.4676444,52.2768294 20.4681551,52.2766588 20.4691276,52.2776166 20.4673225,52.2780429 20.4676433,52.2786506 20.467735,52.2785928 20.4674901,52.2781303 20.4679892,52.2780097 20.468219,52.2784011 20.4700655,52.2778232 20.4732228,52.2777113 20.4723593,52.2770938 20.4692688,52.2774551 20.4722506,52.2770223 20.4716347,52.276408 20.4727275,52.2754631 20.4723785,52.2752584 20.471447,52.2752954 20.4701049,52.2751024 20.4691121,52.2731516 20.4719446,52.2730308 20.4712319,52.2715691 20.4734164,52.2713501 20.4808994,52.2712929 20.4837525,52.2711178 20.4849386,52.2708165 20.4857723,52.2726129 20.4886999,52.2722319 20.4895754,52.2719687 20.4882051,52.2690543 20.4930867,52.2689117 20.4933296,52.2693671 20.5010617,52.2694456 20.5018592,52.2686544 20.5034907,52.2688539 20.5038237,52.2695233 20.5069636,52.2693301 20.5090651,52.2693921 20.5104549,52.2688068 20.5101134,52.2679837 20.5106447,52.2682273 20.5111356,52.2680163 20.5123559,52.2687814 20.5119218,52.2689947 20.5169878,52.2720763 20.517722,52.2717347 20.5183148,52.2720609 20.5184116,52.2721406 20.5177028,52.2724741 20.5182347,52.2728518 20.519177,52.2724131 20.5195281,52.2725307 20.5231072,52.2746718 20.5278451,52.2761813 20.5293725,52.2764877 20.5316686,52.2764991 20.5335339,52.2769236 20.5370997,52.2768287 20.539832,52.2772527 20.5406875,52.2770576 20.5426342,52.2771763 20.5437567,52.2770002 20.5436302,52.2780136 20.5437601,52.2781068 20.5544522,52.2784251 20.5551955,52.2724253 20.5598093,52.2723264 20.5597509,52.2719633 20.5617589,52.2718132 20.5615921,52.2710156 20.5619576,52.2709789 20.5621218,52.2717907 20.5663576,52.2715644 20.5662179,52.2705136 20.5672945,52.270411 20.567756,52.2705012 20.5679186,52.2712809 20.5748796,52.2706704 20.5740497,52.26836 20.5730168,52.2624653 20.5767564,52.2641269 20.5776138,52.2656322 20.5801292,52.2657472 20.5839465,52.2651709 20.5824047,52.2588733 20.5829897,52.2588714 20.5834873,52.2614213 20.5849949,52.2614546 20.5865346,52.261114 20.5887402,52.2612052 20.589037,52.2612915 20.5890623,52.2618396 20.5929244,52.2614055 20.5927245,52.2603984 20.5960175,52.2598726 20.5965109,52.2608479 20.5990424,52.2604736 20.5978064,52.2587221 20.5997336,52.2591258 20.6056847,52.2618113 20.6058429,52.2633287 20.6076039,52.2635875 20.6101606,52.2624048 20.6100753,52.2619225 20.6106352,52.2618885 20.6108618,52.2625405 20.6124461,52.2624236 20.6126326,52.2644317 20.6134122,52.2648536 20.6154853,52.2667281 20.6248071,52.2665609 20.6235153,52.2686067 20.6223029,52.2694416 20.6230166,52.2693352 20.624118,52.2694465 20.6241398,52.2692147 20.6249709,52.2691866 20.6255755,52.2694286 20.6255381,52.2697076 20.6261441,52.2697439 20.6261604,52.2696156 20.6266582,52.2696112 20.6267453,52.2688908 20.6272579,52.2688299 20.6272915,52.2685585 20.6299755,52.2683657 20.6299987,52.2681783 20.6303002,52.268172 20.6303901,52.2674082 20.6323819,52.2675207 20.6324021,52.2673424 20.6338646,52.2675008 20.6338263,52.267717 20.6341527,52.2677385 20.6337755,52.2694516 20.6352938,52.2696749 20.6352398,52.2700678 20.635539,52.2700896 20.6355841,52.2697589 20.6360212,52.2698864 20.635973,52.2706506 20.6365178,52.2706705 20.6366119,52.2700498 20.6420514,52.2716083 20.6419499,52.2723272 20.6422487,52.2723414 20.6422774,52.2721477 20.642425,52.2721582 20.6423988,52.2723465 20.6425896,52.2723482 20.6426189,52.2721311 20.6429555,52.2721591 20.6427468,52.2735327 20.6433785,52.2735612 20.6436209,52.2719346 20.6439393,52.2719821 20.64388,52.272383 20.6461487,52.2722893 20.6460753,52.2727937 20.6467081,52.2728285 20.6470106,52.272579 20.6470611,52.2722917 20.6510319,52.2724725 20.6518897,52.2719858 20.6528701,52.2719492 20.65341,52.2720619 20.6535449,52.272304 20.6540949,52.2724658 20.65547,52.2723966 20.6562196,52.2729975 20.6570018,52.2732414 20.6590787,52.2732973 20.6605146,52.2737315 20.6611929,52.2731002 20.6639003,52.2727499 20.6654827,52.2721356 20.6725689,52.2714592 20.6729487,52.2740054 20.6743459,52.2725714 20.6742651,52.2753561 20.6787938,52.2752185 20.6803461,52.2750001 20.6790425,52.270627 20.6807434,52.2695703 20.6823571,52.2690277 20.6850413,52.2684248 20.6845614,52.2663863 20.6861895,52.2674377 20.6880183,52.2679271 20.6871004,52.2680887 20.6887679,52.2689286 20.6885153,52.2683195 20.6890214,52.2682266 20.6888559,52.2678206 20.692183,52.2674584 20.6925095,52.2681857 20.6929758,52.2681109 20.6926597,52.2674095 20.6932873,52.2673653 20.6934608,52.2678056 20.6939204,52.2677329 20.6971322,52.2754603 20.697706,52.2753366 20.6978186,52.2755828 20.7019489,52.2779948 20.7049233,52.2794913 20.7059485,52.2798215 20.7066062,52.2798533 20.7085804,52.2798239 20.7088334,52.2797867 20.7094593,52.2810734 20.7110122,52.2812465 20.7117788,52.2827755 20.7167626,52.2831257 20.7208281,52.2840002 20.7218617,52.2838383 20.7225033,52.2851955 20.7220563,52.2852819 20.7221987,52.2855573 20.7231827,52.2854604 20.7234417,52.2857845 20.7238362,52.2857164 20.7237351,52.2855174 20.7244621,52.2853834 20.7249788,52.2864678 20.7298003,52.2855926 20.7290663,52.2840797 20.7292572,52.2840474 20.7300028,52.2855552 20.7302051,52.2855184 20.7295918,52.2842958 20.7293156,52.2840361 20.7296663,52.2839746 20.7304004,52.2854829 20.7306503,52.2854366 20.730198,52.2845036 20.7303869,52.2844699 20.7302559,52.2841958 20.7309145,52.2853892 20.7314613,52.2852881 20.7311343,52.2844229 20.7327905,52.2878771 20.7331613,52.2878142 20.7340278,52.289658 20.7357224,52.2893547 20.7359396,52.2898076 20.7373215,52.2894219 20.7378974,52.2887357 20.7397507,52.2885886 20.7403629,52.2898728 20.7410852,52.2897176 20.7397146,52.2868548 20.7390733,52.286646 20.7377476,52.2839349 20.7425005,52.2838778 20.7423897,52.2836422 20.7426759,52.2835922 20.742934,52.2838868 20.7446767,52.2836672 20.744772,52.2835104 20.7453827,52.2841125 20.7485344,52.2840828 20.7486708,52.2834127 20.7507259,52.2825398 20.7514115,52.2819265 20.7521467,52.2815241 20.7549003,52.2815795 20.7558029,52.2817533 20.7557481,52.2798718 20.7584113,52.279845 20.7582727,52.2756468 20.7535455,52.2757101 20.7533949,52.2704906 20.7541309,52.2706939 20.7541906,52.2727953 20.7582113,52.272766 20.7582317,52.2737266 20.7589765,52.27377 20.7589898,52.2741293 20.7597675,52.2741269 20.7597696,52.2737705 20.7600951,52.2737712 20.7601619,52.275985 20.7603762,52.2759853 20.7603814,52.2761402 20.7696429,52.276469 20.7740921,52.2764618 20.792404,52.2762315 20.801114,52.2758443 20.8011438,52.2762243 20.8014058,52.2766568 20.8016268,52.2766388 20.8016757,52.277103 20.8018151,52.2771875 20.8051178,52.2779231 20.8040259,52.2782149 20.8038145,52.2786612 20.8039045,52.2787726 20.8031463,52.279975 20.8067684,52.2805989 20.807139,52.2802647 20.8077792,52.2790583 20.8098452,52.2796629 20.8117813,52.2795968 20.8119082,52.2770702 20.8192504,52.2775813 20.8197073,52.2769976 20.8200245,52.2751692 20.8247155,52.275457 20.824287,52.2816507</coordinates></LinearRing></outerBoundaryIs><innerBoundaryIs><LinearRing><coordinates>20.7914698,52.3022121 20.7913251,52.3019123 20.791189,52.301937 20.7913336,52.3022373 20.7914698,52.3022121</coordinates></LinearRing></innerBoundaryIs><innerBoundaryIs><LinearRing><coordinates>20.7926067,52.3024659 20.7924429,52.3021185 20.7922846,52.3021464 20.792456,52.3024899 20.7926067,52.3024659</coordinates></LinearRing></innerBoundaryIs><innerBoundaryIs><LinearRing><coordinates>20.7919767,52.3017153 20.7920049,52.3017102 20.7917784,52.3013039 20.7919767,52.3017153</coordinates></LinearRing></innerBoundaryIs></Polygon></MultiGeometry>
  </Placemark>
</Folder>
</Document></kml>
